GLOBALSTAR M063         
1 26081U 00008A   26004.12350257 -.00000053  00000+0  43330-3 0  9996
2 26081  51.9974 302.3750 0004922 345.4286  28.2265 11.86178759181427
GLOBALSTAR M062         
1 26082U 00008B   26004.01922368  .00000045  00000+0  10215-2 0  9998
2 26082  51.9831 225.1899 0006934 171.6464 354.1322 12.43481437521605
GLOBALSTAR M060         
1 26083U 00008C   26004.03232109 -.00000130  00000+0 -38890-3 0  9995
2 26083  51.9992 213.5755 0003355 152.2108   5.2563 12.17671970176836
GLOBALSTAR M064         
1 26084U 00008D   26004.14089928 -.00000090  00000+0 -90721-4 0  9994
2 26084  52.0051  38.7868 0001650  93.5773 266.5249 11.88539678190999
GLOBALSTAR M065         
1 31571U 07020A   25351.59775860 -.00000114  00000+0 -59491-4 0  9998
2 31571  51.9915  28.0181 0009699 356.5964 173.4742 12.62015524856566
GLOBALSTAR M069         
1 31573U 07020C   26003.97057978 -.00000053  00000+0  36243-3 0  9990
2 31573  52.0059 356.9225 0001757 164.5913 211.8086 12.23465909858708
GLOBALSTAR M072         
1 31574U 07020D   26003.65283256 -.00000080  00000+0  52765-4 0  9994
2 31574  51.9906 178.2809 0001489  44.7988  35.2028 11.91655105855360
GLOBALSTAR M071         
1 31576U 07020F   26004.05201917 -.00000068  00000+0  22925-3 0  9995
2 31576  52.0081  27.9720 0001061 149.1397 237.3618 12.18263304519420
